[{"OBJECT_NAME":"IONOSFERA-M 4","OBJECT_ID":"2025-155B","EPOCH":"2026-03-09T23:04:46.382016","MEAN_MOTION":14.21468398,"ECCENTRICITY":0.0001693,"INCLINATION":98.5919,"RA_OF_ASC_NODE":33.341,"ARG_OF_PERICENTER":103.4918,"MEAN_ANOMALY":256.6448,"EPHEMERIS_TYPE":0,"CLASSIFICATION_TYPE":"U","NORAD_CAT_ID":64877,"ELEMENT_SET_NO":999,"REV_AT_EPOCH":3230,"BSTAR":7.6908035e-5,"MEAN_MOTION_DOT":1.25e-6,"MEAN_MOTION_DDOT":0},{"OBJECT_NAME":"METEOR 2-8 DEB","OBJECT_ID":"1982-025W","EPOCH":"2026-03-06T11:57:36.015264","MEAN_MOTION":14.19406572,"ECCENTRICITY":0.00110562,"INCLINATION":82.5359,"RA_OF_ASC_NODE":339.6595,"ARG_OF_PERICENTER":65.5292,"MEAN_ANOMALY":294.704,"EPHEMERIS_TYPE":0,"CLASSIFICATION_TYPE":"U","NORAD_CAT_ID":36336,"ELEMENT_SET_NO":999,"REV_AT_EPOCH":25139,"BSTAR":0.0020105092,"MEAN_MOTION_DOT":4.245e-5,"MEAN_MOTION_DDOT":0}]
